ONEWEB-0716             
1 55177U 23004AP  23059.58334491  .00068900  00000+0  12483-1 0  9991
2 55177  86.6219 264.1011 0014587  55.4965 213.6315 14.65847783  1301
ONEWEB-0716             
1 55177U 23004AP  23059.75001157 -.00041087  00000+0 -75643-2 0  9997
2 55177  86.6219 264.0317 0014465  54.7142  13.3471 14.65908023  7515
ONEWEB-0716             
1 55177U 23004AP  23059.91667824  .00053419  00000+0  96969-2 0  9998
2 55177  86.6219 263.9628 0014512  54.1188 172.9165 14.65861133  1308
ONEWEB-0716             
1 55177U 23004AP  23060.25001157 -.00044843  00000+0 -82595-2 0  9991
2 55177  86.6217 263.8263 0014532  53.4238 131.5189 14.65909744  7584
ONEWEB-0716             
1 55177U 23004AP  23060.91667824  .00053149  00000+0  96599-2 0  9999
2 55177  86.6217 263.5506 0014678  51.0055  49.7789 14.65805998  1309
ONEWEB-0716             
1 55177U 23004AP  23061.78507323  .00000435  00000+0  75366-4 0  9993
2 55177  86.6215 263.1932 0014546  48.0997 312.1455 14.65840662  7817
ONEWEB-0716             
1 55177U 23004AP  23062.53606980 -.00013695  00000+0 -25221-2 0  9993
2 55177  86.6214 262.8835 0014327  47.1642 313.0773 14.65765792  7923
ONEWEB-0716             
1 55177U 23004AP  23062.87741332 -.00013416  00000+0 -24711-2 0  9995
2 55177  86.6214 262.7428 0014297  46.1185 314.1207 14.65758602  7978
